satname,norad_id,inclination_deg,eccentricity,mean_motion_rev_per_day,perigee_km,apogee_km,l1,l2
STARLINK-1567,46038,53.0877,0.0001594,15.2525913,488.91264416416107,491.1022086072926,1 46038U 20055M   26072.66667824  .01838076  00000+0  65624-1 0  9991,2 46038  53.0877 108.1176 0001594  66.8641 330.9451 15.25259130  5752
STARLINK-1569,46039,53.1235,0.0001492,15.22524201,497.2039003634909,499.25580823281325,1 46039U 20055N   26072.66667824  .00977861  00000+0  38347-1 0  9999,2 46039  53.1235 108.0771 0001492  63.9964 323.8910 15.22524201  5690
STARLINK-1582,46043,53.1313,0.000109,15.24092222,492.76365954154335,494.2616791694618,1 46043U 20055S   26072.66667824  .01681666  00000+0  62669-1 0  9994,2 46043  53.1313 108.1495 0001090  66.4048 241.4205 15.24092222  5801
STARLINK-1591,46045,53.1234,0.0001383,15.22072901,498.63784235984895,500.5402213802636,1 46045U 20055U   26072.66667824  .00545226  00000+0  22087-1 0  9996,2 46045  53.1234 108.0229 0001383  69.9761 168.2225 15.22072901  5699
STARLINK-1524,46047,53.1583,0.0001227,15.3018481,474.4195125325268,476.10133626047354,1 46047U 20055W   26072.66667824 -.00005308  00000+0 -16731-3 0  9993,2 46047  53.1583  95.3676 0001227  81.7226  72.9757 15.30184810  5814
STARLINK-1527,46048,53.161,0.0001372,15.30206576,474.25515752892625,476.1357119490176,1 46048U 20055X   26072.31840033  .00003627  00000+0  13452-3 0  9998,2 46048  53.1610  97.0837 0001372  90.2144 269.9014 15.30206576309601
STARLINK-1540,46051,53.1616,0.0001074,15.30207096,474.4578343875228,475.929929861004,1 46051U 20055AA  26072.27624115  .00006091  00000+0  21757-3 0  9993,2 46051  53.1616  97.1851 0001074 102.3313 257.7808 15.30207096309637
STARLINK-1541,46052,53.1626,0.0001223,15.30196497,474.3873625285887,476.06369500312485,1 46052U 20055AB  26072.06977007 -.00000575  00000+0 -72904-5 0  9997,2 46052  53.1626  98.1869 0001223  79.6103 280.5035 15.30196497309568
STARLINK-1543,46053,53.1605,0.0001192,15.30203333,474.3881993197356,476.02203608059517,1 46053U 20055AC  26072.33734866  .00004093  00000+0  15023-3 0  9996,2 46053  53.1605  96.9694 0001192  79.9753 280.1382 15.30203333309634
STARLINK-1548,46054,53.1618,0.0001448,15.30199512,474.22416090911247,476.20889209038614,1 46054U 20055AD  26072.27940990  .00000741  00000+0  37137-4 0  9994,2 46054  53.1618  97.2440 0001448  99.4325 260.6840 15.30199512309622
STARLINK-1554,46055,53.1614,0.0001345,15.30205887,474.2757184656475,476.11926544398284,1 46055U 20055AE  26072.47326494  .00003473  00000+0  12930-3 0  9992,2 46055  53.1614  96.4634 0001345  97.3340 262.7814 15.30205887309655
STARLINK-1564,46058,53.1628,0.0001761,15.30143605,474.1765549427264,476.59036484870103,1 46058U 20055AH  26072.27529126  .00011781  00000+0  40997-3 0  9995,2 46058  53.1628  97.7189 0001761  89.7094 270.4108 15.30143605309612
STARLINK-1570,46059,53.1589,0.0001606,15.30202679,474.10642336217825,476.3077174775972,1 46059U 20055AJ  26072.43532302  .00002534  00000+0  97649-4 0  9997,2 46059  53.1589  96.5127 0001606  80.3053 279.8129 15.30202679309600
STARLINK-1572,46060,53.1567,0.0001282,15.29359782,476.84603591178075,478.60387891766277,1 46060U 20055AK  26072.32073373  .00000035  00000+0  13560-4 0  9999,2 46060  53.1567  97.2444 0001282  86.5065 273.6082 15.29359782309593
STARLINK-1573,46061,53.1599,0.0001262,15.30195846,474.3625779461836,476.09236713905375,1 46061U 20055AL  26072.28888487  .00003659  00000+0  13563-3 0  9992,2 46061  53.1599  97.1458 0001262  92.2393 267.8752 15.30195846309623
STARLINK-1577,46063,53.1615,0.0001415,15.30200574,474.24360648401216,476.18310463463513,1 46063U 20055AN  26072.44584425  .00002254  00000+0  88215-4 0  9994,2 46063  53.1615  96.3882 0001415  88.4264 271.6898 15.30200574309641
STARLINK-1583,46064,53.1614,0.000142,15.3022823,474.157616998742,476.1039450485532,1 46064U 20055AP  26072.48165358 -.00003125  00000+0 -93336-4 0  9999,2 46064  53.1614  96.2524 0001420 102.5960 257.5199 15.30228230309646
STARLINK-1525,46066,53.0555,0.0001485,15.15978353,516.9858837027887,519.034039350363,1 46066U 20055AR  26072.66667824  .00708599  00000+0  33977-1 0  9993,2 46066  53.0555  78.3078 0001485  84.0201  45.0574 15.15978353  5842
STARLINK-1536,46070,53.0561,0.0001441,15.06397327,546.2218064026893,548.2176942181286,1 46070U 20055AV  26072.39917866  .00000677  00000+0  64345-4 0  9990,2 46070  53.0561  79.9621 0001441  97.3517 262.7636 15.06397327309877
STARLINK-1542,46073,53.055,0.0001256,15.0639823,546.3471582784305,548.0868071988943,1 46073U 20055AY  26072.39180663  .00000272  00000+0  37119-4 0  9990,2 46073  53.0550  79.9982 0001256  80.9003 279.2128 15.06398230309862
STARLINK-1549,46074,53.0559,0.0001333,15.06396019,546.3006085675834,548.146909745974,1 46074U 20055AZ  26072.44342455  .00000992  00000+0  85461-4 0  9998,2 46074  53.0559  79.7682 0001333  94.5699 265.5442 15.06396019309865
STARLINK-1551,46075,53.0554,0.0001333,15.06397089,546.2973295963338,548.1436299004345,1 46075U 20055BA  26072.40286836  .00000104  00000+0  25846-4 0  9991,2 46075  53.0554  79.9491 0001333  88.7565 271.3577 15.06397089309860
STARLINK-1552,46076,53.0553,0.000138,15.06402066,546.2495287258917,548.160923180254,1 46076U 20055BB  26072.42867497  .00001596  00000+0  12599-3 0  9998,2 46076  53.0553  79.8330 0001380  80.9213 279.1932 15.06402066309859
STARLINK-1559,46077,53.0273,0.0004418,15.29983049,472.83482537804866,478.8910197096084,1 46077U 20055BC  26072.34962266  .00058148  00000+0  19727-2 0  9994,2 46077  53.0273  56.9009 0004418  54.3920 305.7490 15.29983049310142
STARLINK-1566,46079,53.0553,0.0001448,15.06384565,546.2560670729972,548.2616617153244,1 46079U 20055BE  26072.24806798 -.00003295  00000+0 -20252-3 0  9993,2 46079  53.0553  80.6470 0001448  97.8035 262.3118 15.06384565309843
STARLINK-1568,46080,53.0631,0.000633,15.46851502,421.63624434097073,430.25020990851135,1 46080U 20055BF  26072.24155156  .00039021  00000+0  76859-3 0  9998,2 46080  53.0631  16.0199 0006330 127.0769 233.0818 15.46851502310745
STARLINK-1578,46082,53.0561,0.000132,15.063863,546.3393952311653,548.1676983355155,1 46082U 20055BH  26072.39550509 -.00001302  00000+0 -68542-4 0  9991,2 46082  53.0561  79.9827 0001320  87.3189 272.7951 15.06386300309867
STARLINK-1579,46083,53.0554,0.0001394,15.06400593,546.2443471436582,548.1751338149033,1 46083U 20055BJ  26072.43139898 -.00003720  00000+0 -23097-3 0  9992,2 46083  53.0554  79.8113 0001394  90.5847 269.5302 15.06400593309860
